[{"OBJECT_NAME":"BRO-1","OBJECT_ID":"2019-054A","EPOCH":"2026-03-09T16:28:44.999616","MEAN_MOTION":15.66250354,"ECCENTRICITY":0.0008796,"INCLINATION":44.9993,"RA_OF_ASC_NODE":153.3787,"ARG_OF_PERICENTER":331.8221,"MEAN_ANOMALY":28.22,"EPHEMERIS_TYPE":0,"CLASSIFICATION_TYPE":"U","NORAD_CAT_ID":44495,"ELEMENT_SET_NO":999,"REV_AT_EPOCH":36404,"BSTAR":0.00076001799,"MEAN_MOTION_DOT":0.00081046,"MEAN_MOTION_DDOT":0},{"OBJECT_NAME":"STARLINK-11306 [DTC]","OBJECT_ID":"2024-175M","EPOCH":"2026-03-09T22:31:01.737120","MEAN_MOTION":15.6968798,"ECCENTRICITY":0.0001418,"INCLINATION":53.1594,"RA_OF_ASC_NODE":55.1748,"ARG_OF_PERICENTER":80.0828,"MEAN_ANOMALY":280.035,"EPHEMERIS_TYPE":0,"CLASSIFICATION_TYPE":"U","NORAD_CAT_ID":61254,"ELEMENT_SET_NO":999,"REV_AT_EPOCH":8460,"BSTAR":2.0140333e-5,"MEAN_MOTION_DOT":1.849e-5,"MEAN_MOTION_DDOT":0}]
